[{"OBJECT_NAME":"FENGYUN 1C DEB","OBJECT_ID":"1999-025RN","EPOCH":"2026-03-05T18:42:57.153024","MEAN_MOTION":14.17719275,"ECCENTRICITY":0.0167798,"INCLINATION":98.5156,"RA_OF_ASC_NODE":59.8542,"ARG_OF_PERICENTER":353.2008,"MEAN_ANOMALY":130.6467,"EPHEMERIS_TYPE":0,"CLASSIFICATION_TYPE":"U","NORAD_CAT_ID":30109,"ELEMENT_SET_NO":999,"REV_AT_EPOCH":98728,"BSTAR":0.00073731,"MEAN_MOTION_DOT":1.683e-5,"MEAN_MOTION_DDOT":0},{"OBJECT_NAME":"FENGYUN 1C DEB","OBJECT_ID":"1999-025RP","EPOCH":"2026-03-05T05:37:50.973600","MEAN_MOTION":13.56279491,"ECCENTRICITY":0.0268977,"INCLINATION":98.9052,"RA_OF_ASC_NODE":170.2553,"ARG_OF_PERICENTER":140.3619,"MEAN_ANOMALY":221.7527,"EPHEMERIS_TYPE":0,"CLASSIFICATION_TYPE":"U","NORAD_CAT_ID":30110,"ELEMENT_SET_NO":999,"REV_AT_EPOCH":94633,"BSTAR":0.00038554,"MEAN_MOTION_DOT":3.06e-6,"MEAN_MOTION_DDOT":0},{"OBJECT_NAME":"FENGYUN 1C DEB","OBJECT_ID":"1999-025RR","EPOCH":"2026-03-05T12:16:05.990880","MEAN_MOTION":14.2262044,"ECCENTRICITY":0.0199077,"INCLINATION":99.2928,"RA_OF_ASC_NODE":47.9145,"ARG_OF_PERICENTER":232.2615,"MEAN_ANOMALY":126.0376,"EPHEMERIS_TYPE":0,"CLASSIFICATION_TYPE":"U","NORAD_CAT_ID":30112,"ELEMENT_SET_NO":999,"REV_AT_EPOCH":98759,"BSTAR":0.00060095,"MEAN_MOTION_DOT":1.593e-5,"MEAN_MOTION_DDOT":0},{"OBJECT_NAME":"FENGYUN 1C DEB","OBJECT_ID":"1999-025RS","EPOCH":"2026-03-05T13:49:53.565024","MEAN_MOTION":14.46616427,"ECCENTRICITY":0.003872,"INCLINATION":99.0372,"RA_OF_ASC_NODE":287.1713,"ARG_OF_PERICENTER":113.8802,"MEAN_ANOMALY":275.8514,"EPHEMERIS_TYPE":0,"CLASSIFICATION_TYPE":"U","NORAD_CAT_ID":30113,"ELEMENT_SET_NO":999,"REV_AT_EPOCH":99106,"BSTAR":0.00199,"MEAN_MOTION_DOT":7.204e-5,"MEAN_MOTION_DDOT":0},{"OBJECT_NAME":"FENGYUN 1C DEB","OBJECT_ID":"1999-025RT","EPOCH":"2026-03-05T13:38:42.097920","MEAN_MOTION":14.09732421,"ECCENTRICITY":0.0080201,"INCLINATION":98.7504,"RA_OF_ASC_NODE":69.6066,"ARG_OF_PERICENTER":245.4405,"MEAN_ANOMALY":237.8768,"EPHEMERIS_TYPE":0,"CLASSIFICATION_TYPE":"U","NORAD_CAT_ID":30114,"ELEMENT_SET_NO":999,"REV_AT_EPOCH":98321,"BSTAR":0.00019922,"MEAN_MOTION_DOT":3.17e-6,"MEAN_MOTION_DDOT":0},{"OBJECT_NAME":"FENGYUN 1C DEB","OBJECT_ID":"1999-025RU","EPOCH":"2026-03-05T15:49:55.695360","MEAN_MOTION":14.20168667,"ECCENTRICITY":0.0067969,"INCLINATION":98.6136,"RA_OF_ASC_NODE":94.7937,"ARG_OF_PERICENTER":179.602,"MEAN_ANOMALY":302.1673,"EPHEMERIS_TYPE":0,"CLASSIFICATION_TYPE":"U","NORAD_CAT_ID":30115,"ELEMENT_SET_NO":999,"REV_AT_EPOCH":98505,"BSTAR":0.0010969,"MEAN_MOTION_DOT":2.353e-5,"MEAN_MOTION_DDOT":0},{"OBJECT_NAME":"FENGYUN 1C DEB","OBJECT_ID":"1999-025RV","EPOCH":"2026-03-05T16:19:28.263936","MEAN_MOTION":14.29987703,"ECCENTRICITY":0.002254,"INCLINATION":99.3881,"RA_OF_ASC_NODE":147.167,"ARG_OF_PERICENTER":111.8245,"MEAN_ANOMALY":43.9534,"EPHEMERIS_TYPE":0,"CLASSIFICATION_TYPE":"U","NORAD_CAT_ID":30116,"ELEMENT_SET_NO":999,"REV_AT_EPOCH":98694,"BSTAR":0.0019134,"MEAN_MOTION_DOT":4.901e-5,"MEAN_MOTION_DDOT":0},{"OBJECT_NAME":"FENGYUN 1C DEB","OBJECT_ID":"1999-025RW","EPOCH":"2026-03-05T12:25:13.639008","MEAN_MOTION":14.07239594,"ECCENTRICITY":0.0163709,"INCLINATION":98.8134,"RA_OF_ASC_NODE":55.8865,"ARG_OF_PERICENTER":336.8887,"MEAN_ANOMALY":140.4855,"EPHEMERIS_TYPE":0,"CLASSIFICATION_TYPE":"U","NORAD_CAT_ID":30117,"ELEMENT_SET_NO":999,"REV_AT_EPOCH":98153,"BSTAR":0.00033922,"MEAN_MOTION_DOT":5.99e-6,"MEAN_MOTION_DDOT":0},{"OBJECT_NAME":"FENGYUN 1C DEB","OBJECT_ID":"1999-025RX","EPOCH":"2026-03-05T13:11:42.504864","MEAN_MOTION":14.05160552,"ECCENTRICITY":0.0084327,"INCLINATION":98.8058,"RA_OF_ASC_NODE":70.8715,"ARG_OF_PERICENTER":186.6144,"MEAN_ANOMALY":295.5226,"EPHEMERIS_TYPE":0,"CLASSIFICATION_TYPE":"U","NORAD_CAT_ID":30118,"ELEMENT_SET_NO":999,"REV_AT_EPOCH":98094,"BSTAR":0.00019337,"MEAN_MOTION_DOT":2.8e-6,"MEAN_MOTION_DDOT":0},{"OBJECT_NAME":"FENGYUN 1C DEB","OBJECT_ID":"1999-025RY","EPOCH":"2026-03-04T22:56:53.791296","MEAN_MOTION":14.22809609,"ECCENTRICITY":0.01321302,"INCLINATION":97.9278,"RA_OF_ASC_NODE":54.6969,"ARG_OF_PERICENTER":49.7146,"MEAN_ANOMALY":339.8865,"EPHEMERIS_TYPE":0,"CLASSIFICATION_TYPE":"U","NORAD_CAT_ID":30119,"ELEMENT_SET_NO":999,"REV_AT_EPOCH":98349,"BSTAR":0.0022063554,"MEAN_MOTION_DOT":5.381e-5,"MEAN_MOTION_DDOT":0},{"OBJECT_NAME":"FENGYUN 1C DEB","OBJECT_ID":"1999-025RZ","EPOCH":"2026-03-05T04:57:40.121568","MEAN_MOTION":14.28382532,"ECCENTRICITY":0.00597088,"INCLINATION":98.8438,"RA_OF_ASC_NODE":152.1885,"ARG_OF_PERICENTER":332.5352,"MEAN_ANOMALY":58.5334,"EPHEMERIS_TYPE":0,"CLASSIFICATION_TYPE":"U","NORAD_CAT_ID":30120,"ELEMENT_SET_NO":999,"REV_AT_EPOCH":98548,"BSTAR":0.0015580998,"MEAN_MOTION_DOT":3.925e-5,"MEAN_MOTION_DDOT":0},{"OBJECT_NAME":"FENGYUN 1C DEB","OBJECT_ID":"1999-025SA","EPOCH":"2026-03-05T16:41:15.420768","MEAN_MOTION":14.41359358,"ECCENTRICITY":0.0028455,"INCLINATION":102.1572,"RA_OF_ASC_NODE":125.6701,"ARG_OF_PERICENTER":299.9308,"MEAN_ANOMALY":182.6186,"EPHEMERIS_TYPE":0,"CLASSIFICATION_TYPE":"U","NORAD_CAT_ID":30121,"ELEMENT_SET_NO":999,"REV_AT_EPOCH":98734,"BSTAR":0.0025913,"MEAN_MOTION_DOT":8.368e-5,"MEAN_MOTION_DDOT":0},{"OBJECT_NAME":"FENGYUN 1C DEB","OBJECT_ID":"1999-025SC","EPOCH":"2026-03-05T18:37:50.760480","MEAN_MOTION":14.26858913,"ECCENTRICITY":0.0225597,"INCLINATION":96.9312,"RA_OF_ASC_NODE":353.0673,"ARG_OF_PERICENTER":191.479,"MEAN_ANOMALY":168.1203,"EPHEMERIS_TYPE":0,"CLASSIFICATION_TYPE":"U","NORAD_CAT_ID":30123,"ELEMENT_SET_NO":999,"REV_AT_EPOCH":98431,"BSTAR":0.00078219,"MEAN_MOTION_DOT":2.452e-5,"MEAN_MOTION_DDOT":0},{"OBJECT_NAME":"FENGYUN 1C DEB","OBJECT_ID":"1999-025SD","EPOCH":"2026-03-05T16:10:29.559936","MEAN_MOTION":14.14575965,"ECCENTRICITY":0.0142272,"INCLINATION":99.1202,"RA_OF_ASC_NODE":125.3648,"ARG_OF_PERICENTER":230.9433,"MEAN_ANOMALY":256.2001,"EPHEMERIS_TYPE":0,"CLASSIFICATION_TYPE":"U","NORAD_CAT_ID":30124,"ELEMENT_SET_NO":999,"REV_AT_EPOCH":98087,"BSTAR":0.0011863,"MEAN_MOTION_DOT":2.465e-5,"MEAN_MOTION_DDOT":0},{"OBJECT_NAME":"FENGYUN 1C DEB","OBJECT_ID":"1999-025SE","EPOCH":"2026-03-05T06:18:37.258272","MEAN_MOTION":14.23563122,"ECCENTRICITY":0.0340774,"INCLINATION":98.7187,"RA_OF_ASC_NODE":167.479,"ARG_OF_PERICENTER":104.7529,"MEAN_ANOMALY":286.0977,"EPHEMERIS_TYPE":0,"CLASSIFICATION_TYPE":"U","NORAD_CAT_ID":30125,"ELEMENT_SET_NO":999,"REV_AT_EPOCH":98095,"BSTAR":0.0011144,"MEAN_MOTION_DOT":4.589e-5,"MEAN_MOTION_DDOT":0},{"OBJECT_NAME":"FENGYUN 1C DEB","OBJECT_ID":"1999-025SG","EPOCH":"2026-03-05T12:42:45.254880","MEAN_MOTION":14.39519572,"ECCENTRICITY":0.008218,"INCLINATION":98.2082,"RA_OF_ASC_NODE":282.4794,"ARG_OF_PERICENTER":190.7593,"MEAN_ANOMALY":169.1841,"EPHEMERIS_TYPE":0,"CLASSIFICATION_TYPE":"U","NORAD_CAT_ID":30127,"ELEMENT_SET_NO":999,"REV_AT_EPOCH":98426,"BSTAR":0.0028014,"MEAN_MOTION_DOT":9.058e-5,"MEAN_MOTION_DDOT":0}]
