FENGYUN 1C DEB          
1 30109U 99025RN  26064.77982816  .00001683  00000+0  73731-3 0  9995
2 30109  98.5156  59.8542 0167798 353.2008 130.6467 14.17719275987286
FENGYUN 1C DEB          
1 30110U 99025RP  26064.23461775  .00000306  00000+0  38554-3 0  9999
2 30110  98.9052 170.2553 0268977 140.3619 221.7527 13.56279491946334
FENGYUN 1C DEB          
1 30112U 99025RR  26064.51118045  .00001593  00000+0  60095-3 0  9995
2 30112  99.2928  47.9145 0199077 232.2615 126.0376 14.22620440987590
FENGYUN 1C DEB          
1 30113U 99025RS  26064.57631441  .00007204  00000+0  19900-2 0  9995
2 30113  99.0372 287.1713 0038720 113.8802 275.8514 14.46616427991060
FENGYUN 1C DEB          
1 30114U 99025RT  26064.56854280  .00000317  00000+0  19922-3 0  9996
2 30114  98.7504  69.6066 0080201 245.4405 237.8768 14.09732421983219
FENGYUN 1C DEB          
1 30115U 99025RU  26064.65967240  .00002353  00000+0  10969-2 0  9991
2 30115  98.6136  94.7937 0067969 179.6020 302.1673 14.20168667985056
FENGYUN 1C DEB          
1 30116U 99025RV  26064.68018824  .00004901  00000+0  19134-2 0  9994
2 30116  99.3881 147.1670 0022540 111.8245  43.9534 14.29987703986946
FENGYUN 1C DEB          
1 30117U 99025RW  26064.51751897  .00000599  00000+0  33922-3 0  9992
2 30117  98.8134  55.8865 0163709 336.8887 140.4855 14.07239594981530
FENGYUN 1C DEB          
1 30118U 99025RX  26064.54979751  .00000280  00000+0  19337-3 0  9998
2 30118  98.8058  70.8715 0084327 186.6144 295.5226 14.05160552980945
FENGYUN 1C DEB          
1 30119U 99025RY  26063.95617814  .00005381  00000+0  22064-2 0  9999
2 30119  97.9278  54.6969 0132130  49.7146 339.8865 14.22809609983494
FENGYUN 1C DEB          
1 30120U 99025RZ  26064.20671437  .00003925  00000+0  15581-2 0  9999
2 30120  98.8438 152.1885 0059708 332.5352  58.5334 14.28382532985480
FENGYUN 1C DEB          
1 30121U 99025SA  26064.69531737  .00008368  00000+0  25913-2 0  9997
2 30121 102.1572 125.6701 0028455 299.9308 182.6186 14.41359358987349
FENGYUN 1C DEB          
1 30123U 99025SC  26064.77628195  .00002452  00000+0  78219-3 0  9999
2 30123  96.9312 353.0673 0225597 191.4790 168.1203 14.26858913984312
FENGYUN 1C DEB          
1 30124U 99025SD  26064.67395324  .00002465  00000+0  11863-2 0  9999
2 30124  99.1202 125.3648 0142272 230.9433 256.2001 14.14575965980871
FENGYUN 1C DEB          
1 30125U 99025SE  26064.26293123  .00004589  00000+0  11144-2 0  9990
2 30125  98.7187 167.4790 0340774 104.7529 286.0977 14.23563122980959
FENGYUN 1C DEB          
1 30127U 99025SG  26064.52969045  .00009058  00000+0  28014-2 0  9994
2 30127  98.2082 282.4794 0082180 190.7593 169.1841 14.39519572984268
